NORAD_CAT_ID,OBJECT_NAME,OBJECT_TYPE,EPOCH,MEAN_MOTION,ECCENTRICITY,INCLINATION,RA_OF_ASC_NODE,ARG_OF_PERICENTER,MEAN_ANOMALY,BSTAR,MEAN_MOTION_DOT,MEAN_MOTION_DDOT,TLE_LINE0,TLE_LINE1,TLE_LINE2,SEMIMAJOR_AXIS,PERIOD,APOGEE,PERIGEE,DECAYED
53993.0,STARLINK-5121,PAYLOAD,2023-08-06 18:21:40,15.08830912,0.0001745,53.2169,135.295,80.4257,279.6932,-0.00011126,-2.058e-05,0.0,0 STARLINK-5121,1 53993U 22125AF  23218.76504957 -.00002058  00000-0 -11126-3 0  9991,2 53993  53.2169 135.2950 0001745  80.4257 279.6932 15.08830912 46808,6917.908,95.438,540.98,538.566,0.0
53993.0,STARLINK-5121,PAYLOAD,2023-08-07 00:43:13,15.0882527,0.0001078,53.2161,134.1056,81.592,278.5194,-0.00014849,-2.649e-05,0.0,0 STARLINK-5121,1 53993U 22125AF  23219.03001399 -.00002649  00000-0 -14849-3 0  9995,2 53993  53.2161 134.1056 0001078  81.5920 278.5194 15.08825270 46846,6917.925,95.438,540.536,539.045,0.0
53993.0,STARLINK-5121,PAYLOAD,2023-08-07 11:50:54,15.08836692,0.0001125,53.2176,132.0248,79.6154,280.4965,-7.6878e-05,-1.511e-05,0.0,0 STARLINK-5121,1 53993U 22125AF  23219.49368749 -.00001511  00000-0 -76878-4 0  9998,2 53993  53.2176 132.0248 0001125  79.6154 280.4965 15.08836692 46918,6917.891,95.438,540.534,538.977,0.0
53993.0,STARLINK-5121,PAYLOAD,2023-08-08 00:33:59,15.08848662,0.0001006,53.2161,129.6455,83.1086,277.002,0.00015607,2.198e-05,0.0,0 STARLINK-5121,1 53993U 22125AF  23220.02360027  .00002198  00000-0  15607-3 0  9992,2 53993  53.2161 129.6455 0001006  83.1086 277.0020 15.08848662 46998,6917.854,95.437,540.415,539.023,0.0
53993.0,STARLINK-5121,PAYLOAD,2023-08-09 03:35:31,15.0886389,0.0001033,53.2161,124.5897,77.389,282.7218,0.00057437,8.871e-05,0.0,0 STARLINK-5121,1 53993U 22125AF  23221.14967416  .00008871  00000-0  57437-3 0  9992,2 53993  53.2161 124.5897 0001033  77.3890 282.7218 15.08863890 47162,6917.807,95.436,540.387,538.958,0.0
53993.0,STARLINK-5121,PAYLOAD,2023-08-10 01:50:57,15.08840226,0.0004361,53.2155,120.4275,60.5446,299.598,1.8604e-05,7e-08,0.0,0 STARLINK-5121,1 53993U 22125AF  23222.07704935  .00000007  00000-0  18604-4 0  9997,2 53993  53.2155 120.4275 0004361  60.5446 299.5980 15.08840226 47304,6917.88,95.438,542.762,536.728,0.0
53993.0,STARLINK-5121,PAYLOAD,2023-08-10 09:47:51,15.08841889,0.0002034,53.2167,118.9401,71.9962,288.1252,-9.2905e-06,-4.36e-06,0.0,0 STARLINK-5121,1 53993U 22125AF  23222.40823874 -.00000436  00000-0 -92905-5 0  9993,2 53993  53.2167 118.9401 0002034  71.9962 288.1252 15.08841889 47351,6917.875,95.437,541.147,538.333,0.0
53993.0,STARLINK-5121,PAYLOAD,2023-08-12 01:32:30,15.08838355,0.0001387,53.2178,111.5059,81.6949,278.42,9.8289e-05,1.277e-05,0.0,0 STARLINK-5121,1 53993U 22125AF  23224.06424243  .00001277  00000-0  98289-4 0  9996,2 53993  53.2178 111.5059 0001387  81.6949 278.4200 15.08838355 47601,6917.885,95.438,540.71,538.791,0.0
53993.0,STARLINK-5121,PAYLOAD,2023-08-12 23:47:53,15.08849328,8.89e-05,53.2166,107.3445,91.1086,269.0008,0.00018797,2.706e-05,0.0,0 STARLINK-5121,1 53993U 22125AF  23224.99159624  .00002706  00000-0  18797-3 0  9999,2 53993  53.2166 107.3445 0000889  91.1086 269.0008 15.08849328 47743,6917.852,95.437,540.332,539.102,0.0
53993.0,STARLINK-5121,PAYLOAD,2023-08-13 23:38:41,15.08840519,0.000108,53.2167,102.8845,88.0111,272.1005,6.2624e-05,7.09e-06,0.0,0 STARLINK-5121,1 53993U 22125AF  23225.98520300  .00000709  00000-0  62624-4 0  9992,2 53993  53.2167 102.8845 0001080  88.0111 272.1005 15.08840519 47897,6917.879,95.438,540.491,538.997,0.0
53993.0,STARLINK-5121,PAYLOAD,2023-08-15 15:23:19,15.08844212,0.0001106,53.2167,95.4504,85.9322,274.1797,0.00015354,2.157e-05,0.0,0 STARLINK-5121,1 53993U 22125AF  23227.64120365  .00002157  00000-0  15354-3 0  9990,2 53993  53.2167  95.4504 0001106  85.9322 274.1797 15.08844212 48148,6917.868,95.437,540.498,538.967,0.0
53993.0,STARLINK-5121,PAYLOAD,2023-08-16 23:11:02,15.0884172,0.0001321,53.2138,89.5032,91.9599,268.1544,5.4354e-05,5.77e-06,0.0,0 STARLINK-5121,1 53993U 22125AF  23228.96600348  .00000577  00000-0  54354-4 0  9998,2 53993  53.2138  89.5032 0001321  91.9599 268.1544 15.08841720 48344,6917.875,95.437,540.654,538.826,0.0
53993.0,STARLINK-5121,PAYLOAD,2023-08-18 00:37:12,15.08846288,0.0001358,53.2172,84.7435,97.9998,262.1148,0.00015173,2.128e-05,0.0,0 STARLINK-5121,1 53993U 22125AF  23230.02583831  .00002128  00000-0  15173-3 0  9994,2 53993  53.2172  84.7435 0001358  97.9998 262.1148 15.08846288 48501,6917.861,95.437,540.666,538.787,0.0
53993.0,STARLINK-5121,PAYLOAD,2023-08-18 16:31:04,15.08832027,0.0001248,53.2144,81.7705,95.6353,264.4782,3.7696e-06,-2.28e-06,0.0,0 STARLINK-5121,1 53993U 22125AF  23230.68824808 -.00000228  00000-0  37696-5 0  9994,2 53993  53.2144  81.7705 0001248  95.6353 264.4782 15.08832027 48601,6917.905,95.438,540.633,538.906,0.0
53993.0,STARLINK-5121,PAYLOAD,2023-08-19 00:28:00,15.08840648,0.0001294,53.2151,80.2838,97.5116,262.6023,0.00013326,1.834e-05,0.0,0 STARLINK-5121,1 53993U 22125AF  23231.01944509  .00001834  00000-0  13326-3 0  9998,2 53993  53.2151  80.2838 0001294  97.5116 262.6023 15.08840648 48650,6917.878,95.438,540.639,538.848,0.0
53993.0,STARLINK-5121,PAYLOAD,2023-08-20 00:18:47,15.08840159,0.0001275,53.2149,75.8234,97.9285,262.1852,0.00011063,1.473e-05,0.0,0 STARLINK-5121,1 53993U 22125AF  23232.01304710  .00001473  00000-0  11063-3 0  9998,2 53993  53.2149  75.8234 0001275  97.9285 262.1852 15.08840159 48806,6917.88,95.438,540.627,538.863,0.0
53993.0,STARLINK-5121,PAYLOAD,2023-08-21 01:44:57,15.08845099,0.0001381,53.2148,71.0653,97.5915,262.5234,0.00019482,2.814e-05,0.0,0 STARLINK-5121,1 53993U 22125AF  23233.07288706  .00002814  00000-0  19482-3 0  9994,2 53993  53.2148  71.0653 0001381  97.5915 262.5234 15.08845099 48965,6917.865,95.437,540.685,538.774,0.0
53993.0,STARLINK-5121,PAYLOAD,2023-08-21 06:31:07,15.08831851,0.0001277,53.2156,70.1733,90.0053,270.1085,-1.7546e-05,-5.67e-06,0.0,0 STARLINK-5121,1 53993U 22125AF  23233.27161432 -.00000567  00000-0 -17546-4 0  9997,2 53993  53.2156  70.1733 0001277  90.0053 270.1085 15.08831851 48991,6917.905,95.438,540.654,538.887,0.0
53993.0,STARLINK-5121,PAYLOAD,2023-08-21 22:24:58,15.08843275,0.0001095,53.2158,67.1995,85.5321,274.5796,0.00019523,2.821e-05,0.0,0 STARLINK-5121,1 53993U 22125AF  23233.93401023  .00002821  00000-0  19523-3 0  9992,2 53993  53.2158  67.1995 0001095  85.5321 274.5796 15.08843275 49096,6917.87,95.437,540.493,538.978,0.0
53993.0,STARLINK-5121,PAYLOAD,2023-08-22 22:15:45,15.08843555,0.0001036,53.2167,62.7372,88.7948,271.3163,0.00018376,2.638e-05,0.0,0 STARLINK-5121,1 53993U 22125AF  23234.92761136  .00002638  00000-0  18376-3 0  9997,2 53993  53.2167  62.7372 0001036  88.7948 271.3163 15.08843555 49242,6917.87,95.437,540.451,539.018,0.0
53993.0,STARLINK-5121,PAYLOAD,2023-08-23 12:34:14,15.08838724,0.0001063,53.2168,60.0614,81.3714,278.7399,0.00014284,1.986e-05,0.0,0 STARLINK-5121,1 53993U 22125AF  23235.52377455  .00001986  00000-0  14284-3 0  9990,2 53993  53.2168  60.0614 0001063  81.3714 278.7399 15.08838724 49337,6917.884,95.438,540.485,539.014,0.0
53993.0,STARLINK-5121,PAYLOAD,2023-08-24 20:21:56,15.08839413,0.0001143,53.218,54.1152,90.5963,269.516,0.00013146,1.805e-05,0.0,0 STARLINK-5121,1 53993U 22125AF  23236.84857372  .00001805  00000-0  13146-3 0  9993,2 53993  53.2180  54.1152 0001143  90.5963 269.5160 15.08839413 49452,6917.882,95.438,540.538,538.956,0.0
53993.0,STARLINK-5121,PAYLOAD,2023-08-25 17:01:57,15.08838784,0.0001185,53.2181,50.2488,84.9883,275.1245,1.6003e-05,-3.3e-07,0.0,0 STARLINK-5121,1 53993U 22125AF  23237.70969495 -.00000033  00000-0  16003-4 0  9998,2 53993  53.2181  50.2488 0001185  84.9883 275.1245 15.08838784 49587,6917.884,95.438,540.569,538.929,0.0
53993.0,STARLINK-5121,PAYLOAD,2023-08-26 18:28:07,15.08839195,0.0001222,53.2187,45.4899,99.9599,260.1531,0.0001321,1.815e-05,0.0,0 STARLINK-5121,1 53993U 22125AF  23238.76953634  .00001815  00000-0  13210-3 0  9997,2 53993  53.2187  45.4899 0001222  99.9599 260.1531 15.08839195 49823,6917.883,95.438,540.593,538.902,0.0
53993.0,STARLINK-5121,PAYLOAD,2023-08-26 20:03:31,15.08839918,0.0001238,53.2188,45.1916,100.9208,259.1923,0.00013414,1.848e-05,0.0,0 STARLINK-5121,1 53993U 22125AF  23238.83577594  .00001848  00000-0  13414-3 0  9994,2 53993  53.2188  45.1916 0001238 100.9208 259.1923 15.08839918 49756,6917.881,95.438,540.602,538.889,0.0
53993.0,STARLINK-5121,PAYLOAD,2023-08-27 19:54:18,15.08835836,0.000122,53.2191,40.7308,90.7258,269.3874,0.00018581,2.67e-05,0.0,0 STARLINK-5121,1 53993U 22125AF  23239.82937991  .00002670  00000-0  18581-3 0  9999,2 53993  53.2191  40.7308 0001220  90.7258 269.3874 15.08835836 49908,6917.893,95.438,540.602,538.914,0.0
53993.0,STARLINK-5121,PAYLOAD,2023-08-28 19:45:05,15.08845984,0.0001226,53.2193,36.2701,90.1955,269.9177,0.00011084,1.477e-05,0.0,0 STARLINK-5121,1 53993U 22125AF  23240.82297565  .00001477  00000-0  11084-3 0  9992,2 53993  53.2193  36.2701 0001226  90.1955 269.9177 15.08845984 50056,6917.862,95.437,540.575,538.879,0.0
53993.0,STARLINK-5121,PAYLOAD,2023-08-29 10:03:33,15.08839435,0.0001174,53.2183,33.5958,102.9432,257.1692,4.5083e-05,4.3e-06,0.0,0 STARLINK-5121,1 53993U 22125AF  23241.41914165  .00000430  00000-0  45083-4 0  9995,2 53993  53.2183  33.5958 0001174 102.9432 257.1692 15.08839435 50227,6917.882,95.438,540.559,538.935,0.0
53993.0,STARLINK-5121,PAYLOAD,2023-08-29 16:25:06,15.08844144,0.0001103,53.218,32.407,102.4868,257.6248,8.7898e-05,1.112e-05,0.0,0 STARLINK-5121,1 53993U 22125AF  23241.68409755  .00001112  00000-0  87898-4 0  9996,2 53993  53.2180  32.4070 0001103 102.4868 257.6248 15.08844144 50187,6917.868,95.437,540.496,538.97,0.0
53993.0,STARLINK-5121,PAYLOAD,2023-08-30 17:51:15,15.08849257,0.0001167,53.2188,27.6499,85.3944,274.7182,0.00011142,1.486e-05,0.0,0 STARLINK-5121,1 53993U 22125AF  23242.74393354  .00001486  00000-0  11142-3 0  9993,2 53993  53.2188  27.6499 0001167  85.3944 274.7182 15.08849257 50345,6917.852,95.437,540.524,538.91,0.0
